{
  "type": "FeatureCollection",
  "features": [
    {
      "type": "Feature",
      "properties": {
        "norad_id": 25590,
        "name": "COSMOS 2361",
        "group": "musson",
        "lat": -39.25578283039363,
        "lon": -20.163434507236964,
        "alt_km": 979.8185633009734,
        "timestamp": "2025-12-10T14:53:37.362603+00:00",
        "meta_object_name": "COSMOS 2361",
        "meta_object_id": "1998-076A",
        "meta_epoch": "2025-12-10T03:11:59.178048",
        "meta_mean_motion": 13.7321707,
        "meta_eccentricity": 0.00300565,
        "meta_inclination": 82.9338,
        "meta_ra_of_asc_node": 346.0143,
        "meta_arg_of_pericenter": 273.1666,
        "meta_mean_anomaly": 159.6616,
        "meta_ephemeris_type": 0,
        "meta_classification_type": "U",
        "meta_norad_cat_id": 25590,
        "meta_element_set_no": 999,
        "meta_rev_at_epoch": 35075,
        "meta_bstar": 8.1259576e-05,
        "meta_mean_motion_dot": 9e-07,
        "meta_mean_motion_ddot": 0,
        "tle_line1": "1 25590U 98076A   25344.13332382  .00000090  00000+0  81260-4 0  9993",
        "tle_line2": "2 25590  82.9338 346.0143 0030056 273.1666 159.6616 13.73217070350757"
      },
      "geometry": {
        "type": "Point",
        "coordinates": [
          -20.163434507236964,
          -39.25578283039363
        ]
      }
    },
    {
      "type": "Feature",
      "properties": {
        "norad_id": 26818,
        "name": "COSMOS 2378",
        "group": "musson",
        "lat": 25.52889031484947,
        "lon": 4.69572123113357,
        "alt_km": 1007.5237130419782,
        "timestamp": "2025-12-10T14:53:37.362621+00:00",
        "meta_object_name": "COSMOS 2378",
        "meta_object_id": "2001-023A",
        "meta_epoch": "2025-12-10T04:37:33.598272",
        "meta_mean_motion": 13.74141691,
        "meta_eccentricity": 0.00322625,
        "meta_inclination": 82.9273,
        "meta_ra_of_asc_node": 1.6136,
        "meta_arg_of_pericenter": 212.0946,
        "meta_mean_anomaly": 218.5089,
        "meta_ephemeris_type": 0,
        "meta_classification_type": "U",
        "meta_norad_cat_id": 26818,
        "meta_element_set_no": 999,
        "meta_rev_at_epoch": 22888,
        "meta_bstar": 5.5549909e-05,
        "meta_mean_motion_dot": 6.7e-07,
        "meta_mean_motion_ddot": 0,
        "tle_line1": "1 26818U 01023A   25344.19274998  .00000067  00000+0  55550-4 0  9994",
        "tle_line2": "2 26818  82.9273   1.6136 0032262 212.0946 218.5089 13.74141691228882"
      },
      "geometry": {
        "type": "Point",
        "coordinates": [
          4.69572123113357,
          25.52889031484947
        ]
      }
    },
    {
      "type": "Feature",
      "properties": {
        "norad_id": 27436,
        "name": "COSMOS 2389",
        "group": "musson",
        "lat": -44.86099353533836,
        "lon": 135.627230973879,
        "alt_km": 1020.4954599071507,
        "timestamp": "2025-12-10T14:53:37.362632+00:00",
        "meta_object_name": "COSMOS 2389",
        "meta_object_id": "2002-026A",
        "meta_epoch": "2025-12-10T07:26:14.999712",
        "meta_mean_motion": 13.75154242,
        "meta_eccentricity": 0.0047672,
        "meta_inclination": 82.9501,
        "meta_ra_of_asc_node": 308.7835,
        "meta_arg_of_pericenter": 67.3427,
        "meta_mean_anomaly": 60.52,
        "meta_ephemeris_type": 0,
        "meta_classification_type": "U",
        "meta_norad_cat_id": 27436,
        "meta_element_set_no": 999,
        "meta_rev_at_epoch": 18115,
        "meta_bstar": 9.3607748e-05,
        "meta_mean_motion_dot": 1.06e-06,
        "meta_mean_motion_ddot": 0,
        "tle_line1": "1 27436U 02026A   25344.30989583  .00000106  00000+0  93608-4 0  9991",
        "tle_line2": "2 27436  82.9501 308.7835 0047672  67.3427  60.5200 13.75154242181151"
      },
      "geometry": {
        "type": "Point",
        "coordinates": [
          135.627230973879,
          -44.86099353533836
        ]
      }
    },
    {
      "type": "Feature",
      "properties": {
        "norad_id": 27818,
        "name": "COSMOS 2398",
        "group": "musson",
        "lat": -19.107269087422782,
        "lon": 96.71734902126093,
        "alt_km": 992.5179062076568,
        "timestamp": "2025-12-10T14:53:37.362642+00:00",
        "meta_object_name": "COSMOS 2398",
        "meta_object_id": "2003-023A",
        "meta_epoch": "2025-12-10T05:55:28.000704",
        "meta_mean_motion": 13.72385361,
        "meta_eccentricity": 0.0032495,
        "meta_inclination": 82.9484,
        "meta_ra_of_asc_node": 274.5352,
        "meta_arg_of_pericenter": 118.4682,
        "meta_mean_anomaly": 34.9541,
        "meta_ephemeris_type": 0,
        "meta_classification_type": "U",
        "meta_norad_cat_id": 27818,
        "meta_element_set_no": 999,
        "meta_rev_at_epoch": 12782,
        "meta_bstar": 0.0001012312,
        "meta_mean_motion_dot": 1.08e-06,
        "meta_mean_motion_ddot": 0,
        "tle_line1": "1 27818U 03023A   25344.24685186  .00000108  00000+0  10123-3 0  9990",
        "tle_line2": "2 27818  82.9484 274.5352 0032495 118.4682  34.9541 13.72385361127829"
      },
      "geometry": {
        "type": "Point",
        "coordinates": [
          96.71734902126093,
          -19.107269087422782
        ]
      }
    },
    {
      "type": "Feature",
      "properties": {
        "norad_id": 28380,
        "name": "COSMOS 2407",
        "group": "musson",
        "lat": 4.0526503227146815,
        "lon": -145.03682913490314,
        "alt_km": 962.8001947312805,
        "timestamp": "2025-12-10T14:53:37.362653+00:00",
        "meta_object_name": "COSMOS 2407",
        "meta_object_id": "2004-028A",
        "meta_epoch": "2025-12-10T04:59:28.906080",
        "meta_mean_motion": 13.76313279,
        "meta_eccentricity": 0.00404077,
        "meta_inclination": 82.961,
        "meta_ra_of_asc_node": 214.7671,
        "meta_arg_of_pericenter": 61.7124,
        "meta_mean_anomaly": 59.7146,
        "meta_ephemeris_type": 0,
        "meta_classification_type": "U",
        "meta_norad_cat_id": 28380,
        "meta_element_set_no": 999,
        "meta_rev_at_epoch": 7388,
        "meta_bstar": 7.4513391e-05,
        "meta_mean_motion_dot": 8.9e-07,
        "meta_mean_motion_ddot": 0,
        "tle_line1": "1 28380U 04028A   25344.20797345  .00000089  00000+0  74513-4 0  9990",
        "tle_line2": "2 28380  82.9610 214.7671 0040407  61.7124  59.7146 13.76313279 73883"
      },
      "geometry": {
        "type": "Point",
        "coordinates": [
          -145.03682913490314,
          4.0526503227146815
        ]
      }
    },
    {
      "type": "Feature",
      "properties": {
        "norad_id": 28521,
        "name": "COSMOS 2414",
        "group": "musson",
        "lat": -0.11293334899278532,
        "lon": 6.276434446296307,
        "alt_km": 914.2772305504586,
        "timestamp": "2025-12-10T14:53:37.362663+00:00",
        "meta_object_name": "COSMOS 2414",
        "meta_object_id": "2005-002A",
        "meta_epoch": "2025-12-10T07:06:38.954880",
        "meta_mean_motion": 13.87902486,
        "meta_eccentricity": 0.00407522,
        "meta_inclination": 82.9493,
        "meta_ra_of_asc_node": 186.5077,
        "meta_arg_of_pericenter": 146.5508,
        "meta_mean_anomaly": 213.8242,
        "meta_ephemeris_type": 0,
        "meta_classification_type": "U",
        "meta_norad_cat_id": 28521,
        "meta_element_set_no": 999,
        "meta_rev_at_epoch": 5761,
        "meta_bstar": 7.054888e-05,
        "meta_mean_motion_dot": 1e-06,
        "meta_mean_motion_ddot": 0,
        "tle_line1": "1 28521U 05002A   25344.29628420  .00000100  00000+0  70549-4 0  9995",
        "tle_line2": "2 28521  82.9493 186.5077 0040752 146.5508 213.8242 13.87902486 57615"
      },
      "geometry": {
        "type": "Point",
        "coordinates": [
          6.276434446296307,
          -0.11293334899278532
        ]
      }
    },
    {
      "type": "Feature",
      "properties": {
        "norad_id": 32052,
        "name": "COSMOS 2429",
        "group": "musson",
        "lat": 50.37639345126044,
        "lon": -6.57061670671876,
        "alt_km": 947.7684273773502,
        "timestamp": "2025-12-10T14:53:37.362672+00:00",
        "meta_object_name": "COSMOS 2429",
        "meta_object_id": "2007-038A",
        "meta_epoch": "2025-12-10T02:25:30.365760",
        "meta_mean_motion": 13.75148997,
        "meta_eccentricity": 0.00393686,
        "meta_inclination": 82.9802,
        "meta_ra_of_asc_node": 345.2542,
        "meta_arg_of_pericenter": 45.0578,
        "meta_mean_anomaly": 315.376,
        "meta_ephemeris_type": 0,
        "meta_classification_type": "U",
        "meta_norad_cat_id": 32052,
        "meta_element_set_no": 999,
        "meta_rev_at_epoch": 91566,
        "meta_bstar": 6.9225607e-05,
        "meta_mean_motion_dot": 8.2e-07,
        "meta_mean_motion_ddot": 0,
        "tle_line1": "1 32052U 07038A   25344.10104590  .00000082  00000+0  69226-4 0  9996",
        "tle_line2": "2 32052  82.9802 345.2542 0039368  45.0578 315.3760 13.75148997915662"
      },
      "geometry": {
        "type": "Point",
        "coordinates": [
          -6.57061670671876,
          50.37639345126044
        ]
      }
    },
    {
      "type": "Feature",
      "properties": {
        "norad_id": 35635,
        "name": "COSMOS 2454",
        "group": "musson",
        "lat": -34.46933912565291,
        "lon": -4.8791184693499545,
        "alt_km": 945.7132873326545,
        "timestamp": "2025-12-10T14:53:37.362682+00:00",
        "meta_object_name": "COSMOS 2454",
        "meta_object_id": "2009-039A",
        "meta_epoch": "2025-12-10T00:48:50.279328",
        "meta_mean_motion": 13.89928013,
        "meta_eccentricity": 0.00204798,
        "meta_inclination": 82.9554,
        "meta_ra_of_asc_node": 170.6962,
        "meta_arg_of_pericenter": 80.9665,
        "meta_mean_anomaly": 79.7408,
        "meta_ephemeris_type": 0,
        "meta_classification_type": "U",
        "meta_norad_cat_id": 35635,
        "meta_element_set_no": 999,
        "meta_rev_at_epoch": 83112,
        "meta_bstar": 5.7382206e-05,
        "meta_mean_motion_dot": 8.7e-07,
        "meta_mean_motion_ddot": 0,
        "tle_line1": "1 35635U 09039A   25344.03391527  .00000087  00000+0  57382-4 0  9994",
        "tle_line2": "2 35635  82.9554 170.6962 0020479  80.9665  79.7408 13.89928013831128"
      },
      "geometry": {
        "type": "Point",
        "coordinates": [
          -4.8791184693499545,
          -34.46933912565291
        ]
      }
    },
    {
      "type": "Feature",
      "properties": {
        "norad_id": 36519,
        "name": "COSMOS 2463",
        "group": "musson",
        "lat": 34.02086765206204,
        "lon": 33.053834792963144,
        "alt_km": 995.9031658941467,
        "timestamp": "2025-12-10T14:53:37.362691+00:00",
        "meta_object_name": "COSMOS 2463",
        "meta_object_id": "2010-017A",
        "meta_epoch": "2025-12-10T06:19:07.082688",
        "meta_mean_motion": 13.71648936,
        "meta_eccentricity": 0.00348383,
        "meta_inclination": 82.9615,
        "meta_ra_of_asc_node": 28.5325,
        "meta_arg_of_pericenter": 295.1783,
        "meta_mean_anomaly": 135.5261,
        "meta_ephemeris_type": 0,
        "meta_classification_type": "U",
        "meta_norad_cat_id": 36519,
        "meta_element_set_no": 999,
        "meta_rev_at_epoch": 78203,
        "meta_bstar": 6.6418601e-05,
        "meta_mean_motion_dot": 7.5e-07,
        "meta_mean_motion_ddot": 0,
        "tle_line1": "1 36519U 10017A   25344.26327642  .00000075  00000+0  66419-4 0  9994",
        "tle_line2": "2 36519  82.9615  28.5325 0034838 295.1783 135.5261 13.71648936782034"
      },
      "geometry": {
        "type": "Point",
        "coordinates": [
          33.053834792963144,
          34.02086765206204
        ]
      }
    }
  ]
}